No,Hostname2,IP Tools,Location,Store Name,Hostname22,Connection,Region,Province,City,Address,Tipe,Location Status,Network Priority,Genset Status,UPS/Inventer Status,Receiver Type,Receiver Status,Battery Backup Status,Route Path,Data Link,Main Link,PROT,Site ID,Affected Device,Lease Expired,Note,Column1,Host,Column2,host3,Activity Log,Update path,Column3,PIC ,Route Path Fix
1,BDGMRT01-OFF-RC02,10.24.0.11,XL Center Martadinata Bandung,Xplor Martadinata Bandung,BDGMRT01-OFF-RC02 / BDGOFF-SDUSR01,IT Link,Central,Jawa Barat,Bandung,"Jl. RE. Martadinata No. 7, Bandung",XLC,RO,1,Ready,Ready,"Rectifier 1 (DV2 CR48), Rectifier 2 (NPS)",Continue,Battery backup < 30 minutes,Xplor Martadinata Bandung <pulling cable> MSC Bandung (using LAN connection XL Office Bandung) PE-BDRGO-01 ge-0/3/4.500 <> to_SWBDRO01,Xplor Martadinata Bandung <pulling cable> MSC Bandung (using LAN connection XL Office Bandung) PE-BDRGO-01 ge-0/3/4.500 <> to_SWBDRO01,PE-BDRGO-01 ge-0/3/4.500 <> to_SWBDRO01,,2510454-MC Route Martadinata,1986_MARTADINATA,45364,,,Xplor Martadinata Bandung - Jawa Barat Is Offline,BDGMR,BDGOFF-SDUSR01,,"PE-BDRGO-01-RE1> interfaces xe-0/0/1.500 
  interface xe-0/0/1.500 
    Description: IT_Link_Bandung_XLOfficeWest (AC_Trunk_10x_GE_to_SWBDRGO01H_XGi0/0/1)","ca_usr@PE-BDRGO-01-RE1> show arp | match xe-0/0/1.500 
00:78:88:4c:f5:00 10.172.42.90    10.172.42.90              xe-0/0/1.500            none",Shift p3,"PE-BDRGO-01-RE1> interfaces xe-0/0/1.500 
  interface xe-0/0/1.500 
    Description: IT_Link_Bandung_XLOfficeWest (AC_Trunk_10x_GE_to_SWBDRGO01H_XGi0/0/1)"
2,SOLOBA01-LO-RA01,10.30.0.80,XL Center Solo,XLC Bayangkara Solo,SOLOBA01-LO-RA01,IT Link,Central,Jawa Tengah,Solo,"JL Bayangkara No 81, Penumping, Laweyan, Surakarta (Barat Stadion Sriwedari)",XLC,Ruko,1,Ready,N/A,Eaton Powerware SM40 APR48,Discontinue,Battery backup 30 minutes,MA-YG2228-01H<> JAW-JT-SKT-2064_SOLO MANGKUBUMEN_2228_5<> JAW-JT-SKT-2064_SOLO MANGKUBUMEN_2228_4<> JAW-JT-SKT-2064_MANGKUBUMEN_2228_1<> JAW-JT-SKT-2065_GRAND MALL SOLO_PC248_0<> XL CENTER SOLO_0,MA-YG2228-01H<> JAW-JT-SKT-2064_SOLO MANGKUBUMEN_2228_5<> JAW-JT-SKT-2064_SOLO MANGKUBUMEN_2228_4<> JAW-JT-SKT-2064_MANGKUBUMEN_2228_1<> JAW-JT-SKT-2065_GRAND MALL SOLO_PC248_0<> XL CENTER SOLO_0,MA-YG2228-01H<> JAW-JT-SKT-2064_SOLO MANGKUBUMEN_2228_5<> JAW-JT-SKT-2064_SOLO MANGKUBUMEN_2228_4<> JAW-JT-SKT-2064_MANGKUBUMEN_2228_1<> JAW-JT-SKT-2065_GRAND MALL SOLO_PC248_0<> XL CENTER SOLO_0,,2228,2225_SOLO,43982,,,XLC Bayangkara Solo - Jawa Tengah Is Offline,SOLOB,SOLOBA01-LO-RA01,,MA-JTSKT2073-01H<>JAW-JT-SKT-2073<>JAW-JT-SKT-0001,,,MA-JTSKT2073-01H<>JAW-JT-SKT-2073<>JAW-JT-SKT-0001
3,JGYCIP01-XLOFF-RA01,10.34.0.4,XL Center Yogyakarta,XL Center Adisucipto Yogyakarta,JGYCIP01-XLOFF-RA01,IT Link,Central,Jawa Tengah,Yogyakarta,Puri Vads (Ex Stockwell) Jl. Laksda Adi Sucipto No 163 (Lt. 1) (Dpn Kampus Uin) Yogyakarta,Xplor,RO,1,Ready,N/A,Ericsson,Discontinue,No battery backup,MA-YG353PC060G-01H GE0/2/12.3551 <> RTN JAW-YO-SMN-0569_Gedung StokWell_353PC060G_0 3-EG4-2 ,MA-YG353PC060G-01H GE0/2/12.3551 <> RTN JAW-YO-SMN-0569_Gedung StokWell_353PC060G_0 3-EG4-2 ,MA-YG353PC060G-01H GE0/2/12.3551 <> RTN JAW-YO-SMN-0569_Gedung StokWell_353PC060G_0 3-EG4-2 ,,253PC060,MA-YG253PC060-01H,43914,,,XL Center Adisucipto Yogyakarta - Jawa Tengah Is Offline,JGYCI,JGYCIP01-OFF-RA01,,MA-YG353PC060G-01H GE0/2/12.3551 <> RTN JAW-YO-SMN-0569_Gedung StokWell_353PC060G_0 1-EG4-2 ,,Shift p3,MA-YG353PC060G-01H GE0/2/12.3551 <> RTN JAW-YO-SMN-0569_Gedung StokWell_353PC060G_0 1-EG4-2 
4,TEGALG01-LO-RA02,10.31.89.3,XL Center Tegal,XLC AYani Tegal (LO),TEGALG01-LO-RA01 / TEGALG01-LO-RA02,IT Link,Central,Jawa Tengah,Tegal,Jl. Gajah Mada no.28 Tegal,XLC,Ruko,2,Ready,N/A,GSPE Type A,Discontinue,Battery backup 30 minutes,MA-SM3535649G-01H (GE0/2/27) <> RTN JAW-JT-TGL-3178_MINTARAGEN TEGAL TIMUR_2535649_0  <> RTN JAW-JT-TGL-0150_XL Center Tegal_253A300_0 <> XLC Tegal,MA-SM3535649G-01H (GE0/2/27) <> RTN JAW-JT-TGL-3178_MINTARAGEN TEGAL TIMUR_2535649_0  <> RTN JAW-JT-TGL-0150_XL Center Tegal_253A300_0 <> XLC Tegal,,,2309,2309_TEGAL,44561,"Reroute 17 March, 2021 (Relocated to dealer)",,XLC AYani Tegal (LO) - Jawa Tengah Is Offline,TEGAL,TEGALG01-LO-RA02,,MA-SM3535649G-01H G0/2/27 <> JAW-JT-TGL-3178_MINTARAGEN TEGAL TIMUR_2535649_0 <> JAW-JT-TGL-0150_XL Center Tegal_253A300_0 <> 17 EG6-1 XLC,"<MA-SM3535649G-01H>dis arp all | i XL
10.171.196.49   4cf5-5b2e-8645            I -         GE0/2/27.3551    XLOfficeMPLS
10.171.196.50   Incomplete      1         D-0         GE0/2/27.3551    XLOfficeMPLS
10.171.196.51   60b9-c014-2500  20        D-0         GE0/2/27.3551    XLOfficeMPLS",Shift p3,MA-SM3535649G-01H G0/2/27 <> JAW-JT-TGL-3178_MINTARAGEN TEGAL TIMUR_2535649_0 <> JAW-JT-TGL-0150_XL Center Tegal_253A300_0 <> 17 EG6-1 XLC
5,PKLNGN01-XLC-RA01,10.30.0.89,XL Center Pekalongan,XLC Hasanuddin Pekalongan (LO),PKLNGN01-XLC-RA01,IT Link,Central,Jawa Tengah,Pekalongan,"Jl. Hasanuddin no 39, Kota Pekalongan",XLC,Ruko,2,Ready,N/A,GSPE Type A,Discontinue,Battery backup 90 minutes,(TEGALREJO_PEKALONGAN) MA-SM2531527-01H_GE0/2/26 <> JAW-JT-PKL-1316_TEGALREJO PEKALONG <Radio>  JAW-JT-PKL-1328_XL Center Pekalongan_2`,(TEGALREJO_PEKALONGAN) MA-SM2531527-01H_GE0/2/26 <> JAW-JT-PKL-1316_TEGALREJO PEKALONG <Radio>  JAW-JT-PKL-1328_XL Center Pekalongan_2`,(TEGALREJO_PEKALONGAN) MA-SM2531527-01H_GE0/2/26 <> JAW-JT-PKL-1316_TEGALREJO PEKALONG <Radio>  JAW-JT-PKL-1328_XL Center Pekalongan_2`,,2305,2305_PEKALONGAN,44347,Relocated to dealer in 2021,,XLC Hasanuddin Pekalongan (LO) - Jawa Tengah Is Offline,PKLNG,PKLNGN01-XLC-RA01,,,,,(TEGALREJO_PEKALONGAN) MA-SM2531527-01H_GE0/2/26 <> JAW-JT-PKL-1316_TEGALREJO PEKALONG <Radio>  JAW-JT-PKL-1328_XL Center Pekalongan_2`
6,INDRMY01-LO-RA01,10.24.8.2,XL Center Indramayu,XLC Indramayu (LO),INDRMY01-LO-RA01,IT Link,Central,Jawa Barat,Indramayu,"Jl. D.I. Panjaitan No. 44B, Indramayu",XLC,Ruko,2,Ready,N/A,Rectifier standalone,Discontinue,No battery backup,XLC_Indramayu<>RTN XLC Indramayu_00 <> RTN Lemah Abang Indramayu 25104000_0 <> RTN Sindang B0531_1 <>RTN Sindang B0531_3 <> RTN Sindang B0531_4 <> RTN Sindang B0531_5 <> MA-BDB053-01,XLC_Indramayu<>RTN XLC Indramayu_00 <> RTN Lemah Abang Indramayu 25104000_0 <> RTN Sindang B0531_1 <>RTN Sindang B0531_3 <> RTN Sindang B0531_4 <> RTN Sindang B0531_5 <> MA-BDB053-01,XLC_Indramayu<>RTN XLC Indramayu_00 <> RTN Lemah Abang Indramayu 25104000_0 <> RTN Sindang B0531_1 <>RTN Sindang B0531_3 <> RTN Sindang B0531_4 <> RTN Sindang B0531_5 <> MA-BDB053-01,,B053,B053_SINDANG,44299,Relocated to dealer in 2021,,XLC Indramayu (LO) - Jawa Barat Is Offline,INDRM,INDRMY01-LO-RA01,,XLC Indramayu <> RTN JAW-JB-IDM-3475_XLC INDRAMAYU <> RTN JAW-JB-IDM-1251_LEMAH ABANG INDRAMAYU_2510400_0 <> MA-BD2510400-01H,,,XLC Indramayu <> RTN JAW-JB-IDM-3475_XLC INDRAMAYU <> RTN JAW-JB-IDM-1251_LEMAH ABANG INDRAMAYU_2510400_0 <> MA-BD2510400-01H
7,SEMRNG01-XLOFF-RA01,10.30.0.101,XL Center Semarang,XLC Simpang Lima Semarang,SEMRNG01-XLOFF-RA01,IT Link,Central,Jawa Tengah,Semarang,Jl A. Yani no. 130 B Semarang,XLC,RO,1,Ready,N/A,Eaton Powerware SC200 APR48 ES,Continue,Battery backup OK,MA-SM252PX005-01 ge-0/2/0.3551 <> RTN 2290_02_17-EG6#6 <> XL Center - Semarang,MA-SM252PX005-01 ge-0/2/0.3551 <> RTN 2290_02_17-EG6#6 <> XL Center - Semarang,MA-SM252PX005-01 ge-0/2/0.3551 <> RTN 2290_02_17-EG6#6 <> XL Center - Semarang,,252PX005,253PC126_RS,43982,reroute 28 January 2022,,XLC Simpang Lima Semarang - Jawa Tengah Is Offline,SEMRN,SEMRNG01-XLOFF-RA01,,MA-JTSMG2475-01H <> G0/2/16 <> 2-EG2 <> JAW-JT-SMG-2475_XL OFFICE SEMARANG_252PX005_0 <>17 EG6-1 IT link XL Center,"<MA-JTSMG2475-01H>dis arp all | i XL
10.171.171.189  a46d-a478-d3af            I -         GE0/2/16.3551    XLOfficeMPLS
10.171.171.190  a0e0-af69-dcc1  18        D-0         GE0/2/16.3551    XLOfficeMPLS",Shift p3,MA-JTSMG2475-01H <> G0/2/16 <> 2-EG2 <> JAW-JT-SMG-2475_XL OFFICE SEMARANG_252PX005_0 <>17 EG6-1 IT link XL Center
8,CRBCSBGF-XLC-RA01,10.22.77.151,XL Center Cirebon,Xplor Cirebon,CRBCSBGF-XLC-RA01,IT Link,Central,Jawa Barat,Cirebon,CSB Mall Jl. Dr Cipto Mangunkusumo No 26 Lantai Ground Floor No. 9 ,Xplor,Mall,3,Ready,Ready,Connect to picocell (R4850G),Continue,Battery backup OK,MA-BD2510385-01H <port 26> JAW-JB-SBR-1994_PECILON CIREBON_2510 <Radio> XLC CIREBON _XLC CIREBON_XLC <port3> XLC,MA-BD2510385-01H <port 26> JAW-JB-SBR-1994_PECILON CIREBON_2510 <Radio> XLC CIREBON _XLC CIREBON_XLC <port3> XLC,MA-BD2510385-01H <port 26> JAW-JB-SBR-1994_PECILON CIREBON_2510 <Radio> XLC CIREBON _XLC CIREBON_XLC <port3> XLC,,351PC040G,351PC040G_Regular_Cirebon Superblock,43799,Relocated to dealer in Q1-2020,,Xplor Cirebon - Jawa Barat Is Offline,CRBCS,CRBCSBGF-XLC-RA01,,,,,MA-BD2510385-01H <port 26> JAW-JB-SBR-1994_PECILON CIREBON_2510 <Radio> XLC CIREBON _XLC CIREBON_XLC <port3> XLC
9,SELONG01-XLC-RA01,10.22.77.174,XL Center Selong,XLC Selong,SELONG01-XLC-RA01,IT Link,East,Nusa Tenggara Barat,Lombok,"JL. KH Ahmad Dahlan No 05, Pancor, Selong, Kabupaten Lombok Timur, Nusa Tenggara Barat 83611",XLC,Ruko,2,Ready,N/A,Eaton Powerware APR48ES,Continue,Battery backup OK,1_ISU2_NUS-NB-SEL-0802_Pancors (XLC SELONG)_3621472_0 <MW RTN>  4_ISU2_NUS-NB-SEL-0796_PANCORS_262D223_0 <> CSR EID MA-NBSEL0796-01C _ Port 1/5,1_ISU2_NUS-NB-SEL-0802_Pancors (XLC SELONG)_3621472_0 <MW RTN>  4_ISU2_NUS-NB-SEL-0796_PANCORS_262D223_0 <> CSR EID MA-NBSEL0796-01C _ Port 1/5,1_ISU2_NUS-NB-SEL-0802_Pancors (XLC SELONG)_3621472_0 <MW RTN>  4_ISU2_NUS-NB-SEL-0796_PANCORS_262D223_0 <> CSR EID MA-NBSEL0796-01C _ Port 1/5,,3621472G,2613_HUT_SELONG,44196,Update route path 12/01/2024,,XLC Selong - Nusa Tenggara Barat Is Offline,SELON,SELONG01-XLC-RA01,,,,,1_ISU2_NUS-NB-SEL-0802_Pancors (XLC SELONG)_3621472_0 <MW RTN>  4_ISU2_NUS-NB-SEL-0796_PANCORS_262D223_0 <> CSR EID MA-NBSEL0796-01C _ Port 1/5
10,BALI02-XLOFF-SC01,10.31.32.1,XL Center Sunset Road Kuta,XLC Sunset Road (RSO),BALI02-XLOFF-SC01,IT Link,East,Bali,Kuta,"Jl. Sunset Road No. 818, Kuta, Denpasar",XLC,RO,1,Ready,Ready,Eaton Powerware ,Continue,Battery backup OK,XLC Sunset Road (RSO) <pulling cable> MSC Denpasar --- PE-DPRGO-01 ge-1/0/2 (VLAN 500),XLC Sunset Road (RSO) <pulling cable> MSC Denpasar --- PE-DPRGO-01 ge-1/0/2 (VLAN 500),XLC Sunset Road (RSO) <pulling cable> MSC Denpasar --- PE-DPRGO-01 ge-1/0/2 (VLAN 500),,2614733,2614733_BSC_Denpasar_Office,XL Own,,,XLC Sunset Road (RSO) - Bali Is Offline,BALIO,BALIOFF-SC01,,"PE-DPRGO-01 <> interfaces ge-1/0/2.740 
Description: XLOfficetoDPSRC01_DENPASAR-REGIONALOFFICE_PRIMARY (AC_Trunk_1x_GE_to_SWDPRO01)","ca_usr@PE-DPRGO-01> show arp vpn XLOfficeMPLS 
MAC Address       Address         Name                      Interface               Flags
2c:d0:2d:68:be:82 10.172.234.106  10.172.234.106            ge-1/0/2.740            none",Shift p3,"PE-DPRGO-01 <> interfaces ge-1/0/2.740 
Description: XLOfficetoDPSRC01_DENPASAR-REGIONALOFFICE_PRIMARY (AC_Trunk_1x_GE_to_SWDPRO01)"
11,MTREPI02-XLC-RA01,10.31.40.1,XL Center Mataram,Xplor Epicentrum Mataram,MTREPI02-XLC-RA01,IT Link,East,Nusa Tenggara Barat,Lombok,"Epicentrum Mall Lt 2 Jl. Sriwijaya No.333, Punia, Kec. Mataram, Kota Mataram, Nusa Tenggara Bar. 83127",Xplor,Mall,1,Ready,Ready,Enatel tipe B outdoor,Continue,"Battery 2 bank, backup 2 hours",MA_NBMTR0307_01E <> 362PC002g_0 <port 6> XLC Office,MA_NBMTR0307_01E <> 362PC002g_0 <port 6> XLC Office,MA_NBMTR0307_01E <> 362PC002g_0 <port 6> XLC Office,,2621,2621_PAGESANGAN,43496,,,Xplor Epicentrum Mataram - Nusa Tenggara Barat Is Offline,MTREP,MTREPI02-XLC-RA01,,,,,MA_NBMTR0307_01E <> 362PC002g_0 <port 6> XLC Office
12,SBYPMD01-XLOFF-RA01,10.30.0.68,XL Center Pemuda Surabaya,XLC Pemuda Surabaya (LO),SBYPMD01-XLOFF-RA01,IT Link,East,Jawa Timur,Surabaya,"Jl. Pemuda No. 94 - 98, Surabaya",XLC,RO,1,Ready,N/A,Eaton Powerware APR48ES,Continue,Battery backup OK,MA_JISBY2571_01E(10.206.15.4)<>RTN_254PX001_Xl_Center_Surabaya_00_Board_17-EG6_Port_6<>RTN_254PX001_Xl_Center_Surabaya_00_Board_17-EG6_Port_2_TO_XLCentre,MA_JISBY2571_01E(10.206.15.4)<>RTN_254PX001_Xl_Center_Surabaya_00_Board_17-EG6_Port_6<>RTN_254PX001_Xl_Center_Surabaya_00_Board_17-EG6_Port_2_TO_XLCentre,MA_JISBY2571_01E(10.206.15.4)<>RTN_254PX001_Xl_Center_Surabaya_00_Board_17-EG6_Port_6<>RTN_254PX001_Xl_Center_Surabaya_00_Board_17-EG6_Port_2_TO_XLCentre,,254PX001,254PX001_XLCNTR,43951,,,XLC Pemuda Surabaya (LO) - Jawa Timur Is Offline,SBYPM,SBYPMD01-XLOFF-RA01,,,,,MA_JISBY2571_01E(10.206.15.4)<>RTN_254PX001_Xl_Center_Surabaya_00_Board_17-EG6_Port_6<>RTN_254PX001_Xl_Center_Surabaya_00_Board_17-EG6_Port_2_TO_XLCentre
13,JKTGCT01-XLC-RA01,10.21.244.2,XL Center Gandaria City,XL Prioritas Center Gandaria City,JKTGCT01-XLC-RA01,IT Link,Jabo,DKI Jakarta,Jakarta,"Gandaria City Mall 1st Floor Jl. Sultan Iskandar Muda, Kebayoran Lama Utara, Kebayoran Lama, Jakarta Selatan, DKI Jakarta",Prioritas,Mall,1,Ready,N/A,Westindo,Continue,Battery backup 2 hours, via ma-jkkyb1275-01h <> 10.104.85.130 <> 10.104.85.131 <  10.104.85.132 port 5, via ma-jkkyb1275-01h <> 10.104.85.130 <> 10.104.85.131 <  10.104.85.132 port 5, via ma-jkkyb1275-01h <> 10.104.85.130 <> 10.104.85.131 <  10.104.85.132 port 5,,241PX362,3174_KBYNLMSLTN,43888,Reroute 10 April 2022,,XL Prioritas Center Gandaria City - DKI Jakarta Is Offline,JKTGC,JKTGCT01-XLC-RA01,,via ma-jkkyb1275-01h <> 10.104.85.130 <> 10.104.85.131 <  10.104.85.132 port 5,"<MA-JKKYB1275-01H>
10.171.196.65   24f6-0384-d08f            I -         GE0/2/12.3551    XLOfficeMPLS
10.171.196.66   60b9-c013-fa80  10        D-0         GE0/2/12.3551    XLOfficeMPLS
10.171.196.67   60b9-c013-d700  12        D-0         GE0/2/12.3551    XLOfficeMPLS",Shift p3,via ma-jkkyb1275-01h <> 10.104.85.130 <> 10.104.85.131 <  10.104.85.132 port 5
14,RNGKSBITUNGOFF-RA01,10.21.145.2,XL Center Rangkasbitung,XLC Rangkas Bitung (LO),RNGKSBITUNGOFF-RA01,IT Link,Jabo,Banten,Rangkas Bitung,Komp. Ruko Mall Barata Blok A 8 Jl. Rd. Hardiwinangun No. 54 Rangkasbitung ,XLC,Ruko,2,N/A,N/A,Connect to Picocell,Continue,Battery backup OK,RNGKSBITUNGOFF-RAO1 Port Gi0/0 --- XLC Rangkas Bitung (LO) <pulling cable> 241PX254 Rabinza Plaza <iPaso Port 2>  --- MA-JK241PX254-01H_GE0/2/12,RNGKSBITUNGOFF-RAO1 Port Gi0/0 --- XLC Rangkas Bitung (LO) <pulling cable> 241PX254 Rabinza Plaza <iPaso Port 2>  --- MA-JK241PX254-01H_GE0/2/12,RNGKSBITUNGOFF-RAO1 Port Gi0/0 --- XLC Rangkas Bitung (LO) <pulling cable> 241PX254 Rabinza Plaza <iPaso Port 2>  --- MA-JK241PX254-01H_GE0/2/12,,241PX254,241PX254_RBNZA,44211,,,XLC Rangkas Bitung (LO) - Banten Is Offline,RNGKS,RNGKSBITUNGOFF-RA01,,,,,RNGKSBITUNGOFF-RAO1 Port Gi0/0 --- XLC Rangkas Bitung (LO) <pulling cable> 241PX254 Rabinza Plaza <iPaso Port 2>  --- MA-JK241PX254-01H_GE0/2/12
15,XLCSERANG-RA01,10.21.151.2,XL Center Serang,XLC Serang,XLCSERANG-RA01,IT Link,Jabo,Banten,Serang,Jl. Trip Jamaksari No. 12A Cinaggung Serang - Banten,XLC,Ruko,2,N/A,N/A,AC Bell,Discontinue,No battery backup,MA-JK5564G-01H_Gi/0/2/28<LAN>IPASO_JAW-BT-SRG-0965_3_10.114.129.181<WAN>IPASO_XLC_Serang_10.114.129.182<LAN>XLC_Serang,MA-JK5564G-01H_Gi/0/2/28<LAN>IPASO_JAW-BT-SRG-0965_3_10.114.129.181<WAN>IPASO_XLC_Serang_10.114.129.182<LAN>XLC_Serang,MA-JK5564G-01H_Gi/0/2/28<LAN>IPASO_JAW-BT-SRG-0965_3_10.114.129.181<WAN>IPASO_XLC_Serang_10.114.129.182<LAN>XLC_Serang,,2098,2098_KOTASERANG,43677,,,XLC Serang - Banten Is Offline,XLCSE,XLCSERANG-RA01,,MA-JK5564G-01H_Gi/0/2/28<LAN>IPASO_JAW-BT-SRG-0965_3_10.114.129.181<WAN>IPASO_XLC_Serang_10.114.129.182<LAN>XLC_Serang,,Shift p3,MA-JK5564G-01H_Gi/0/2/28<LAN>IPASO_JAW-BT-SRG-0965_3_10.114.129.181<WAN>IPASO_XLC_Serang_10.114.129.182<LAN>XLC_Serang
16,TNGBTXGF-XLC-RA01,10.22.77.153,XL Center Bintaro,Xplor Bintaro Jaya Xchange,TNGBTXGF-XLC-RA01,IT Link,Jabo,Banten,Tangerang,"Bintaro Xchange Mall Lower Ground, Boulevard Bintaro Jaya Blok. O-2, Bintaro Jaya Sektor VIII, Pondok Jaya, Pondok Aren, Tangerang, Banten",Xplor,Mall,1,Ready,N/A,GSPE Type B,Continue,Battery backup OK,MA-JK3181-01H Ge0/2/15 <> JAW-BT-CPT-0330_1 (10.93.240.26) <> JAW-BT-CPT-0330_2 (10.93.240.26) <> JAW-BT-CPT-0637_2 (10.93.240.27) <> JAW-BT-CPT-0637_1 (10.93.240.28) <> XLC Bintaro,MA-JK3181-01H Ge0/2/15 <> JAW-BT-CPT-0330_1 (10.93.240.26) <> JAW-BT-CPT-0330_2 (10.93.240.26) <> JAW-BT-CPT-0637_2 (10.93.240.27) <> JAW-BT-CPT-0637_1 (10.93.240.28) <> XLC Bintaro,MA-JK3181-01H Ge0/2/15 <> JAW-BT-CPT-0330_1 (10.93.240.26) <> JAW-BT-CPT-0330_2 (10.93.240.26) <> JAW-BT-CPT-0637_2 (10.93.240.27) <> JAW-BT-CPT-0637_1 (10.93.240.28) <> XLC Bintaro,,241PX212,241PX212_BINTA,44620,,,Xplor Bintaro Jaya Xchange - Banten Is Offline,TNGBT,TNGBTXGF-XLC-RA01,,MA-JK3181-01H Ge0/2/15 <> JAW-BT-CPT-0330_1 (10.93.240.29) <> JAW-BT-CPT-0330_2 (10.93.240.26) <> JAW-BT-CPT-0637_2 (10.93.240.27) <> JAW-BT-CPT-0637_1 (10.93.240.28) <> XLC Bintaro,"<MA-JK3181-01H>dis arp all 
10.171.170.173  4cf5-5b2e-8886            I -         GE0/2/15.3552    XLOfficeMPLS
10.171.170.174  2c5a-0f8f-ad50  11        D-0         GE0/2/15.3552    XLOfficeMPLS",Shift p3,MA-JK3181-01H Ge0/2/15 <> JAW-BT-CPT-0330_1 (10.93.240.29) <> JAW-BT-CPT-0330_2 (10.93.240.26) <> JAW-BT-CPT-0637_2 (10.93.240.27) <> JAW-BT-CPT-0637_1 (10.93.240.28) <> XLC Bintaro
17,JKTPIM02-XLC-RA01,10.22.77.74,Xplor Pondok Indah Mall,Xplor Pondok Indah Mall,JKTPIM02-XLC-RA01,IT Link,Jabo,DKI Jakarta,Jakarta,Jl. Metro Pondok Indah Kav. IV/TA Pondok Indah Mall 1 Lt. 2 No. 232 & 233 Jakarta Selatan,Xplor,Mall,1,Ready,N/A,"GSPE , EATON APR 48 ES/HE",Continue,Battery backup 2 hours,MA-JK1309-01H GE0/2/12.3551 <> iPASOLINK 400A 10.86.111.66 Port06 <> XL Center - PIM,MA-JK1309-01H GE0/2/12.3551 <> iPASOLINK 400A 10.86.111.66 Port06 <> XL Center - PIM,MA-JK1309-01H GE0/2/12.3551 <> iPASOLINK 400A 10.86.111.66 Port06 <> XL Center - PIM,,1309,1309_METROPI,43966,reroute 28 January 2022,,Xplor Pondok Indah Mall - DKI Jakarta Is Offline,JKTPI,JKTPIM02-XLC-RA01.xl.co.id,,CSR MA-JK1309-01H interface GE0/2/13 <> XL Center,,,CSR MA-JK1309-01H interface GE0/2/13 <> XL Center
18,BEKASI02-RO-RA01,10.22.77.136,XL Center Bekasi,XLC Bekasi (LO),BEKASI02-RO-RA01,IT Link,Jabo,Jawa Barat,Bekasi,"Komp. Ruko Bekasi Mas Blok N No. 7, Jl. Ahmad Yani, Bekasi (Depan Rs Mitra Bekasi Barat)",XLC,Ruko,1,Ready,N/A,AC to DC converter,Discontinue,No battery backup,MA-JK1083-01H (ip: 10.206.3.101 port GE0/2/15) <>JAW-JB-BKS-1049_XL Center Bekasi (ip ipaso 10.114.141.203 port 05) <> XLC Bekasi (port 02),MA-JK1083-01H (ip: 10.206.3.101 port GE0/2/15) <>JAW-JB-BKS-1049_XL Center Bekasi (ip ipaso 10.114.141.203 port 05) <> XLC Bekasi (port 02),MA-JK1083-01H (ip: 10.206.3.101 port GE0/2/15) <>JAW-JB-BKS-1049_XL Center Bekasi (ip ipaso 10.114.141.203 port 05) <> XLC Bekasi (port 02),,3257,3257_XLCNTERBKS,44211,"update data transmisi 31, agustus 2022",,XLC Bekasi (LO) - Jawa Barat Is Offline,BEKAS,BEKASI02-RO-RA01,,MA-JK1083-01H (ip: 10.206.3.101 port GE0/2/15) <>JAW-JB-BKS-1049_XL Center Bekasi (ip ipaso 10.114.145.174 port 05) <> XLC Bekasi (port 02),,Shift p3,MA-JK1083-01H (ip: 10.206.3.101 port GE0/2/15) <>JAW-JB-BKS-1049_XL Center Bekasi (ip ipaso 10.114.145.174 port 05) <> XLC Bekasi (port 02)
19,DEPOK-XLOFF-RA01,10.21.157.2,XL Center Depok,XLC Depok (LO),DEPOKOFF-RA01,IT Link,Jabo,Jawa Barat,Depok,"Ruko Margonda Residence Jl. Margonda Raya No 2-3, Depok",XLC,Ruko,1,Ready,Broken,AC Bell,Discontinue,No battery backup,MA-JBDPK1787-01H_GE0/2/12 <> 10.163.167.226 <> 10.163.167.227 <> port 1 to XLC Depok,MA-JBDPK1787-01H_GE0/2/12 <> 10.163.167.226 <> 10.163.167.227 <> port 1 to XLC Depok,XLC Depok Margonda <iPaso (10.114.80.135) Port 1 --- (10.114.80.134) > 3433111G Pondok Pesantren <iPaso (10.114.80.133) --- (10.114.80.132)> 1134 Kelapa Dua <iPaso> MSC Margonda Depok --- 1203-4-PEG8-5 --- PE-JKMGD-01 Gi0/0/0 (VLAN 3551),,2414831,2414831_ITCDPK,43738,,,XLC Depok (LO) - Jawa Barat Is Offline,DEPOK,DEPOK-XLOFF-RA01,,MA-JBDPK1787-01H_GE0/2/12 <> 10.163.167.226 <> 10.163.167.227 <> port 1 to XLC Depok,"<MA-JBDPK1787-01H>
10.171.196.1    981a-35d9-e978            I -         GE0/2/12.3551    XLOfficeMPLS
10.171.196.2    60b9-c014-2b00  1         D-0         GE0/2/12.3551    XLOfficeMPLS
10.171.196.3    60b9-c014-2c00  1         D-0         GE0/2/12.3551    XLOfficeMPLS",Shift p3,MA-JBDPK1787-01H_GE0/2/12 <> 10.163.167.226 <> 10.163.167.227 <> port 1 to XLC Depok
20,JKTSTR02-XLC-RA01,10.21.9.2,XL Center Sunter,XLC Sunter (LO),JKTSTR02-XLC-RA01,IT Link,Jabo,DKI Jakarta,Jakarta,"Sunter Permai Indah Blok A18, Jl. Mitra Sunter Boulevard, Jakarta Utara",Xplor,Ruko,2,Ready,N/A,Connect to Picocell,Continue,Battery backup OK,MA-JK1209-OH_GEO/2/16 <ipaso port 3> ipaso 10.114.91.4 <ipaso port 4> XLC Sunter,MA-JK1209-OH_GEO/2/16 <ipaso port 3> ipaso 10.114.91.4 <ipaso port 4> XLC Sunter,MA-JK1209-OH_GEO/2/16 <ipaso port 3> ipaso 10.114.91.4 <ipaso port 4> XLC Sunter,,1209,1209_SUNTRINDAH,XL Own,,,XLC Sunter (LO) - DKI Jakarta Is Offline,JKTST,JKTSTR02-XLC-RA01,,,,,MA-JK1209-OH_GEO/2/16 <ipaso port 3> ipaso 10.114.91.4 <ipaso port 4> XLC Sunter
21,JKTMCP04-XLC-RA01,10.22.77.152,XL Center Central Park,Xplor Central Park,JKTMCP04-XLC-RA01,IT Link,Jabo,DKI Jakarta,Jakarta,"Central Park Mall, Lantai 4 unit 232-233. Jl. Let.Jend S. Parman Kav 28 Jakarta Barat 11470",Xplor,Mall,1,Ready,Ready,Connect to Picocell,Continue,Battery backup OK,MA-JKGGP0973-01H Ge-0/2/12<>IPASO 10.114.174.46 <> Port 5 XLC Central Park,MA-JKGGP0973-01H Ge-0/2/12<>IPASO 10.114.174.46 <> Port 5 XLC Central Park,MA-JK1118-01 <> 1118_10.114.203.52 <> 1118_10.114.203.66 <> 241PX328,MA-JK1118-01 <> 1118_10.114.203.52 <> 1118_10.114.203.66 <> 241PX328,1419-2414237,TCU2414237,44585,,,Xplor Central Park - DKI Jakarta Is Offline,JKTMC,JKTMCP04-XLC-RA01,,MA-JKGGP0973-01H Ge-0/2/12<>IPASO 10.114.174.46 <> Port 5 XLC Central Park,,Shift p3,MA-JKGGP0973-01H Ge-0/2/12<>IPASO 10.114.174.46 <> Port 5 XLC Central Park
22,JKTKLGGF-XLC-RA01,10.22.77.27,XL Center Kelapa Gading,Xplor Mall Kelapa Gading,JKTKLGGF-XLC-RA01,IT Link,Jabo,DKI Jakarta,Jakarta,"Mal Kelapa Gading 1, Lt. Dasar Blok G 1 No 66 A, Jl. Boulevard Kelapa Gading Blok M, Kelapa Gading Permai",Xplor,Mall,1,Ready,N/A,Connect to Picocell,Continue,Battery backup OK,"XL Center - Kelapa Gading <Port05> iPaso JAW-JK-TJP-0702 (10.163.171.194) <> MA-JKTJP2416-01H
PLBAKT02-SW-RC01
","XL Center - Kelapa Gading <Port05> iPaso JAW-JK-TJP-0702 (10.163.171.194) <> MA-JKTJP2416-01H
PLBAKT02-SW-RC01
",MA-JK1335-01 <> 10.114.154.150 <> 10.114.136.130 <> 10.114.136.131 <> 10.102.135.115 <> 10.102.135.117 <> 10.102.135.120 (port 3 to XLC),,PC010,PC010_Kelapa Gading Mall,44341,"update data transmisi 31, agustus 2022",MA-JK1335-01 <> 10.114.154.150 <> 10.114.136.130 <> 10.114.136.131 <> 10.102.135.115 <> 10.102.135.117 <> 10.102.135.120 (port 3 to XLC),Xplor Mall Kelapa Gading - DKI Jakarta Is Offline,JKTKL,JKTKLGGF-XLC-RA01,,"XL Center - Kelapa Gading <Port05> iPaso JAW-JK-TJP-0702_1  (10.163.171.194) <> MA-JKTJP2416-01H
PLBAKT02-SW-RC01","<MA-JKTJP2416-01H>dis arp al | i XL 
10.171.170.137  c0e3-fb1f-328b            I -         GE0/2/12.3551    XLOfficeMPLS
10.171.170.138  b4a8-b954-b6d2  12        D-0         GE0/2/12.3551    XLOfficeMPLS",Shift p3,"XL Center - Kelapa Gading <Port05> iPaso JAW-JK-TJP-0702_1  (10.163.171.194) <> MA-JKTJP2416-01H
PLBAKT02-SW-RC01"
23,JKTPUR02-XLC-RA01,10.22.77.140,XL Center Puri Indah,Xplor Puri Indah Mall,JKTPUR02-XLC-RA01,IT Link,Jabo,DKI Jakarta,Jakarta,"Puri Indah Mal Lt. 1 (Phone & Computer Centre), Jl. Puri Agung, Jakarta Barat",Xplor,Mall,1,Ready,N/A,Connect to Picocell,Continue,Battery backup OK,MA-JKGGP0678-01H <> 10.114.129.146 <> 10.114.129.152 <> 10.114.129.153 <port 5> XLC,MA-JKGGP0678-01H <> 10.114.129.146 <> 10.114.129.152 <> 10.114.129.153 <port 5> XLC,,,PC015,PC015_PURIINDAH,44530,Update data transmisi 07 November 2022,,Xplor Puri Indah Mall - DKI Jakarta Is Offline,JKTPU,JKTPUR02-XLC-RA01,,,,,MA-JKGGP0678-01H <> 10.114.129.146 <> 10.114.129.152 <> 10.114.129.153 <port 5> XLC
24,JKTRXY02-XLC-RA01,10.22.77.161,XL Center Roxy,Xplor Roxy,JKTRXY02-XLC-RA01,IT Link,Jabo,DKI Jakarta,Jakarta,"Komplek Ruko Roxy Mas Blok C4/3, Jalan KH Ashari No 34, RW.8, Cideng, Gambir, Kota Jakarta Pusat, Daerah Khusus Ibukota Jakarta 10150, Indonesia",Xplor,Ruko,1,N/A,N/A,"GSPE , EATON APR 48 ES/HE",Continue,Battery backup 2 hours,XLC Roxy <> Port 3 0230_Pusat Niaga Roxy Ipaso 10.86.27.102 <> PAG-JKHUT06-02H 10.86.27.99 - ipaso 10.114.202.40 <> PAG-JKHUT06-02H,XLC Roxy <> Port 3 0230_Pusat Niaga Roxy Ipaso 10.86.27.102 <> PAG-JKHUT06-02H 10.86.27.99 - ipaso 10.114.202.40 <> PAG-JKHUT06-02H,Tunnel Main : 1222_MSTP_HUT06 <> 1223_MSTP_1158 / HUT07 <> 1224_MSTP_HUT08 <> 1248_MSTP_SNAncol <> 1476_MSTP_SNAncol,Tunnel Protection : 1222_MSTP_HUT06 <> 4038_MSTP_1204 <> 1221_MSTP_1001 <> 1493_MSTP_1001 <> 1476_MSTP_SNAncol,HUT0006,HUT0006_HUT_Roxy,43921,,,Xplor Roxy - DKI Jakarta Is Offline,JKTRX,JKTRXY02-XLC-RA01,,,,,XLC Roxy <> Port 3 0230_Pusat Niaga Roxy Ipaso 10.86.27.102 <> PAG-JKHUT06-02H 10.86.27.99 - ipaso 10.114.202.40 <> PAG-JKHUT06-02H
25,KARWNG02-LO-RA01,10.21.175.2,XL Center Karawang,XLC Karawang (LO),KARWNG02-LO-RA01,IT Link,Jabo,Jawa Barat,Karawang,"Komplek Ruko Broadway Blok 3 No. 19 Galuh Mas, Karawang (Samping Pom Bensin Galuh Mas)",XLC,Ruko,3,N/A,N/A,GSPE Type B,Continue,Battery backup OK,XLC Karawang <ipaso Port 4 | ipaso 10.122.141.77 |modem/Port1 > <modem/Port 1 | ipaso 10.122.141.76 | Main/Port 4> <Slot 10 Port 2| ipaso 10.122.141.4 | Slot 10 Port 3> CSR MA_JKB032-01H_GE0/2/14,XLC Karawang <ipaso Port 4 | ipaso 10.122.141.77 |modem/Port1 > <modem/Port 1 | ipaso 10.122.141.76 | Main/Port 4> <Slot 10 Port 2| ipaso 10.122.141.4 | Slot 10 Port 3> CSR MA_JKB032-01H_GE0/2/14,XLC Karawang (LO) <iPaso> B032 Adiarsa <iPaso> 1956 Karawang --- MSTP: 1290-3-PEG8#2 --- PE-JKKRW-01 ge-1/1/0 (VLAN 3551),2889_MSTPJKT_B032_Adiarsa <> 2890_MSTPJKT_B035_Kosambi <> 1446_R50_1957_CikampekKota <> 1209_MSTPJKT_1956_Karawang,B032,B032_ADIARSA,43921,Relocated to dealer in Q1-2020,,XLC Karawang (LO) - Jawa Barat Is Offline,KARWN,KARWNG02-LO-RA01,,MA_JKB032-01H_GE0/2/14<>JAW-JB-KWG-1984_7 10.122.141.2 <> JAW-JB-KWG-XLCntr_1 10.122.141.7 <> port 4 / IT link XLC Karawang,"<MA-JKB032-01H>
10.171.196.25   f41d-6bf8-040c            I -         GE0/2/14.3551    XLOfficeMPLS
10.171.196.26   60b9-c014-2680  9         D-0         GE0/2/14.3551    XLOfficeMPLS
10.171.196.27   60b9-c014-2a80  9         D-0         GE0/2/14.3551    XLOfficeMPLS
10.171.196.28   0000-5e00-0101  10        D-0         GE0/2/14.3551    XLOfficeMPLS",Shift p3,MA_JKB032-01H_GE0/2/14<>JAW-JB-KWG-1984_7 10.122.141.2 <> JAW-JB-KWG-XLCntr_1 10.122.141.7 <> port 4 / IT link XLC Karawang
26,BGRSDR01-XLC-RA01,10.22.77.40,XL Center Bogor,XLC Bogor (LO),BGRSDR01-XLC-RA01,IT Link,Jabo,Jawa Barat,Bogor,"Jl. Jendral Sudirman No.48, Bogor",Xplor,Ruko,1,Ready,N/A,GSPE Type B,Continue,Battery backup >2 hours,XLC Sudirman Bogor (LO) <iPaso> HUT Bogor --- MSTP: PAG-JKHUTBGOR-01 ae0.3551 --- PE-JKBGR-01 Gi0/0/0/4 (VLAN 3551),XLC Sudirman Bogor (LO) <iPaso> HUT Bogor --- MSTP: PAG-JKHUTBGOR-01 ae0.3551 --- PE-JKBGR-01 Gi0/0/0/4 (VLAN 3551),XLC Sudirman Bogor (LO) <iPaso> HUT Bogor --- MSTP: 1212-3-PEG8-8 --- PE-JKBGR-01 Gi0/0/0/4 (VLAN 3551),,241PX444,241PX444_JOGJA,44242,,,XLC Bogor (LO) - Jawa Barat Is Offline,BGRSD,BGRSDR01-XLC-RA01,,,,,XLC Sudirman Bogor (LO) <iPaso> HUT Bogor --- MSTP: PAG-JKHUTBGOR-01 ae0.3551 --- PE-JKBGR-01 Gi0/0/0/4 (VLAN 3551)
27,-,-,XL Center Axiata Tower,Xplor Axiata Tower,,IT Link,Jabo,DKI Jakarta,Jakarta,"Jl. H. R. Rasuna Said No.Kav. X-2 No. 5, RT.9/RW.4, East Kuningan, Setiabudi, South Jakarta City, Jakarta 12950",Xplor,Office,1,Ready,Ready,"GSPE , EATON APR 48 ES/HE",Continue,Battery backup 2 hours,Xplor Axiata Tower ,Xplor Axiata Tower ,IT Link (routepath on progress ask to wipro  ,IT Link (routepath on progress ask to wipro ,PC024,,47893,,,Xplor Axiata Tower - DKI Jakarta Is Offline,0,0,,,,,Xplor Axiata Tower 
28,XLCCIPUTRAWORLD-RA01,#N/A,XL Center Lotte Shopping Avenue,Xplor Ciputra World,XLCCIPUTRAWORLD-RA01,IT Link,Jabo,DKI Jakarta,Jakarta,Xl Center Ciputra World  Lantai 4 No.15A  Jl. Prof. Dr. Satrio Kuningan - Jakarta Selatan,Xplor,Mall,1,Ready,N/A,"GSPE, EATON APR 48 ES/HE (Connect to Picocell)",Continue,Battery backup >2 hours,MA-JKKYB1643-01H <ETH> 10.114.198.66 <ETH> 10.114.198.72 <MW> 10.114.198.77 <ETH> 10.114.198.75 <ETH port 6> XLC,MA-JKKYB1643-01H <ETH> 10.114.198.66 <ETH> 10.114.198.72 <MW> 10.114.198.77 <ETH> 10.114.198.75 <ETH port 6> XLC,Main tunnel (ID 10705) : 1498 <> 2852 <> 0955 <> 1239 <> 1236 <> 2110 <> 1228 <> 1227 <> 1225 <> 1233 <> 1570 <> 1514 <> 2143 <> 2149,Protection tunnel (ID 10705) : 1498 <> 1269 <> 0958 <> 1482 <> 1492 <> 0979 <> 2141 <> 2149,241PX516,241PX516_CIPUT,43698,,,Xplor Ciputra World - DKI Jakarta Is Offline,XLCCI,XLCCIPUTRAWORLD-RA01,,MA-JKTJP2416-01H port g0/2/12 <> port 6  JAW-JK-TJP-0702_1 10.163.171.194 <> port 5 XLC,"<MA-JKTJP2416-01H>dis arp al | i XL 
10.171.170.137  c0e3-fb1f-328b            I -         GE0/2/12.3551    XLOfficeMPLS
10.171.170.138  b4a8-b954-b6d2  12        D-0         GE0/2/12.3551    XLOfficeMPLS",Shift p3,MA-JKTJP2416-01H port g0/2/12 <> port 6  JAW-JK-TJP-0702_1 10.163.171.194 <> port 5 XLC
29,TNGCTM01-XLC-RA01,10.22.77.164,XL Center Tangerang City,Xplor Tangerang City Mall,TNGCTM01-XLC-RA01,IT Link,Jabo,Banten,Tangerang,"Tangerang City Mall LG Floor, Blok 0038-S Jl. Jend. Sudirman No 1, Cikokol Tangerang 15117",Xplor,Mall,1,Ready,N/A,connect to picocell (GSPE Type B),Continue,Battery backup OK,MA-JK2415406-01H <> 10.86.155.66 <> 10.86.155.70 <> 10.86.155.68 port 6 to XLC,MA-JK2415406-01H <> 10.86.155.66 <> 10.86.155.70 <> 10.86.155.68 port 6 to XLC,MA-JK2415406-01H <> 10.86.155.66 <> 10.86.155.70 <> 10.86.155.68 port 6 to XLC,,241PX331,241PX331,44212,Update Route Path and Site ID at 10 June 2023,,Xplor Tangerang City Mall - Banten Is Offline,TNGCT,TNGCTM01-XLC-RA01,,,,,MA-JK2415406-01H <> 10.86.155.66 <> 10.86.155.70 <> 10.86.155.68 port 6 to XLC
30,MAKASR02-RO-RA01,10.41.0.2,XL Center Makassar,XLC Pettarani Makassar (RSO),MAKASR02-RO-RA01,IT Link,North,Sulawesi Selatan,Makassar,"Jl. A.P. Pettarani No. 68, Makassar",XLC,RO,1,Ready,N/A,AC Bell,Discontinue,Battery broken (not backup),XL Center Pettarani (RSO) <> iPaso SUL-SN-MKS-0206_3 (10.100.131.85) <DTS> MA-SNMKS0204-01Z (xgei-1/1/0/2),XL Center Pettarani (RSO) <> iPaso SUL-SN-MKS-0206_3 (10.100.131.85) <DTS> MA-SNMKS0204-01Z (xgei-1/1/0/2),XL Center Pettarani (RSO) <pulling cable> C724 Pettarani --- iPaso200 (10.42.52.18) port Ge-3 --- MA-MKJC724-01 Port Gi0/0/0 (VLAN 3551),,C724,C724_PETTARANI,XL Own,,,XLC Pettarani Makassar (RSO) - Sulawesi Selatan Is Offline,MAKAS,MAKASR02-RO-RA01,,,,,XL Center Pettarani (RSO) <> iPaso SUL-SN-MKS-0206_3 (10.100.131.85) <DTS> MA-SNMKS0204-01Z (xgei-1/1/0/2)
31,PLBAKT02-SW-RC01,10.59.0.1,XL Center Palembang,XLC Palembang,PLBAKT02-SW-RC01,IT Link,West,Sumatera Selatan,Palembang,Grha XL Palembang JL .Angkatan 45 No.818 Palembang,XLC,RO,1,Ready,Ready,CR48 – NPR48,Continue,Battery backup 2 hours, SWPLRGO01H port GE1/0/4 <> C-PLRGO-01, SWPLRGO01H port GE1/0/4 <> C-PLRGO-01,via PE-PLRGO-01C Gi0/0/0/2.740 <> to_SWPGRO01,,EH33,EH33_XLOfficePalembang,XL Own,"Update Route path from wa xl center group  15 jan 2024
 SWPLRGO01H port GE1/0/4 <> C-PLRGO-01",,XLC Palembang - Sumatera Selatan Is Offline,PLBAK,PLBAKT02-SW-RC01,,,,, SWPLRGO01H port GE1/0/4 <> C-PLRGO-01
32,MDNDIP03-RO-RA01,10.60.0.8,XL Center Medan,XLC Diponegoro Medan,MDNDIP03-RO-RA01,IT Link,West,Sumatera Utara,Medan,"Jl. Diponegoro No. 5, Kel. Petisah Tengah, Kec. Medan Petisah, Medan 20112",XLC,RO,1,Ready,Ready,Eaton Powerware APR48ES SC100,Continue,Battery backup OK,XLC Diponegoro Medan <MSTP: (1902-21-PETF#2)(1909-2-PEG8#5)> 3019 Tanjung Morawa --- PE-MDTGM-01 Gi0/0/0/4.3551,XLC Diponegoro Medan <MSTP: (1902-21-PETF#2)(1909-2-PEG8#5)> 3019 Tanjung Morawa --- PE-MDTGM-01 Gi0/0/0/4.3551,XLC Diponegoro Medan <> Ipaso 3058 (10.114.10.38) <> Ipaso 3058 (10.114.10.36) <> MA-MD3058-01,XLC Diponegoro Medan <> Ipaso 3058 (10.114.10.38) <> Ipaso 3058 (10.114.10.36) <> MA-MD3058-01,3058,3058_GRAHAXLMEDAN,43738,,,XLC Diponegoro Medan - Sumatera Utara Is Offline,MDNDI,MDNDIP03-RO-RA01,,XLC Diponegoro Medan <> Port 1 iPaso SUM-SU-MDN-0680  10.114.10.34 <> MA-SUMDN0680-01H GE-0/2/17.3551,,,XLC Diponegoro Medan <> Port 1 iPaso SUM-SU-MDN-0680  10.114.10.34 <> MA-SUMDN0680-01H GE-0/2/17.3551
33,PKBNGKU01-XLOFF-SC01,10.60.0.21,XLC GrhaXL Pekanbaru,XLC GrhaXL Pekanbaru,PKBNGKU01-XLOFF-SC01,IT Link,West,Riau,Payung,"Jl. Nangka Ujung No. 819 Labuh Baru Barat, Payung Sekaki-Pekanbaru 28291",XLC,RO,1,Ready,Ready,Eaton powerware SM65,Continue,Battery backup OK,MA-RIPBR0183-01H XLC PKU GE0/2/21_to-PKBNGKU01-XLOFF-SC01_Port_G1/0/9,MA-RIPBR0183-01H XLC PKU GE0/2/21_to-PKBNGKU01-XLOFF-SC01_Port_G1/0/9,via PE-PBRGO-01C Gi0/0/0/5.750 <> to_SWPBRO01,,E996G,E996G_XL_OFFICE_PKU,XL Own,,,XLC GrhaXL Pekanbaru - Riau Is Offline,PKBNG,PKBNGKU01-XLOFF-SC01,,MA-RIPBR0183-01H inte g0/2/21 / Description: MA-RIPBR0183-01H_GE0/2/21_to-PKBNGKU01-XLOFF-SC01_Port_G1/0/9,"<MA-RIPBR0183-01H>dis arp all | i 0/2/21
10.59.201.109   c4e2-87d4-80cf            I -         GE0/2/21         XLOfficeWest
10.59.201.110   00b6-7069-e9f7  13        D-0         GE0/2/21         XLOfficeWest",Shift p3,MA-RIPBR0183-01H inte g0/2/21 / Description: MA-RIPBR0183-01H_GE0/2/21_to-PKBNGKU01-XLOFF-SC01_Port_G1/0/9
34,PLZMARINA-XLC-RA01,10.22.77.178,XL Center Plaza Marina Surabaya,XLC Plaza Marina Surabaya,PLZMARINA-XLC-RA01,IT Link,East,Jawa Timur,Surabaya,"Plaza Marina Lantai Dasar, Jl. Margorejo Indah No. 99, Surabaya, Jawa Timur",XLC,Mall,1,Ready,N/A,Connect to Picocell,Continue,Battery backup OK,XLC Plaza Marina - 254PX311 Plaza Marina - 1824 Wonocolo,XLC Plaza Marina - 254PX311 Plaza Marina - 1824 Wonocolo,XLC Plaza Marina <pulling cable FO> 254PX311 Plaza Marina <RTN 17-EG6-5> 1824 Wonocolo --- MA-SB1824-01 Port Gi-0/0/0 (VLAN 3551),,254PX311,254PX311_PLZMRN,43943,,,XLC Plaza Marina Surabaya - Jawa Timur Is Offline,PLZMA,PLZMARINA-XLC-RA01,,MA-JISBY4011-01C#10.219.169.87#Gi0/0/0/15.3551 JAW-JI-SBY-4011_354PC122G_3G_HOTEL_IBIS_STYLE_SURABAYA_017-SLF2EM6-4(to Gi0/2/15)1-ISM8-1(RTNIF-1)JAW-JI-SBY-2579_PLAZA MARINA_254PX311_11-ISM8-1(RTNIF-1)17-EG6-6(TO XL Center),,,MA-JISBY4011-01C#10.219.169.87#Gi0/0/0/15.3551 JAW-JI-SBY-4011_354PC122G_3G_HOTEL_IBIS_STYLE_SURABAYA_017-SLF2EM6-4(to Gi0/2/15)1-ISM8-1(RTNIF-1)JAW-JI-SBY-2579_PLAZA MARINA_254PX311_11-ISM8-1(RTNIF-1)17-EG6-6(TO XL Center)
35,BDGMRT01-OFF-RC02,10.24.0.11,XL Center Martadinata Bandung,Xplor Martadinata Bandung,BDGMRT01-OFF-RC02 / BDGOFF-SDUSR01,IT Link,Central,Jawa Barat,Bandung,"Jl. RE. Martadinata No. 7, Bandung",XLC,RO,1,Ready,Ready,"Rectifier 1 (DV2 CR48), Rectifier 2 (NPS)",Continue,Battery backup < 30 minutes,Xplor Martadinata Bandung <pulling cable> MSC Bandung (using LAN connection XL Office Bandung) PE-BDRGO-01 ge-0/3/4.500 <> to_SWBDRO01,Xplor Martadinata Bandung <pulling cable> MSC Bandung (using LAN connection XL Office Bandung) PE-BDRGO-01 ge-0/3/4.500 <> to_SWBDRO01,PE-BDRGO-01 ge-0/3/4.500 <> to_SWBDRO01,,2510454-MC Route Martadinata,1986_MARTADINATA,45364,,,Xplor Martadinata Bandung - Jawa Barat Is Offline,BDGMR,BDGMRT01-OFF-RC02,,,,,Xplor Martadinata Bandung <pulling cable> MSC Bandung (using LAN connection XL Office Bandung) PE-BDRGO-01 ge-0/3/4.500 <> to_SWBDRO01
36,TEGALG01-LO-RA01,10.31.89.2,XL Center Tegal,XLC AYani Tegal (LO),TEGALG01-LO-RA01 / TEGALG01-LO-RA02,IT Link,Central,Jawa Tengah,Tegal,Jl. Gajah Mada no.28 Tegal,XLC,Ruko,2,Ready,N/A,GSPE Type A,Discontinue,Battery backup 30 minutes,PAG-JTTGL2600-06H (port 17) <> RTN JAW-JT-TGL-2600_TEGAL_2309_5  <> RTN JAW-JT-TGL-0000_XLC Tegal_253A300_0  <> XLC Tegal,PAG-JTTGL2600-06H (port 17) <> RTN JAW-JT-TGL-2600_TEGAL_2309_5  <> RTN JAW-JT-TGL-0000_XLC Tegal_253A300_0  <> XLC Tegal,PAG-JTTGL2600-06H (port 17) <> RTN JAW-JT-TGL-2600_TEGAL_2309_5  <> RTN JAW-JT-TGL-0000_XLC Tegal_253A300_0  <> XLC Tegal,,2309,2309_TEGAL,44561,"Reroute 17 March, 2021 (Relocated to dealer)",,XL Center Tegal - Jawa Tengah Is Offline,TEGAL,TEGALG01-LO-RA01,,MA-SM3535649G-01H G0/2/27 <> JAW-JT-TGL-3178_MINTARAGEN TEGAL TIMUR_2535649_0 <> JAW-JT-TGL-0150_XL Center Tegal_253A300_0 <> 17 EG6-1 XLC,"<MA-SM3535649G-01H>dis arp all | i XL
10.171.196.49   4cf5-5b2e-8645            I -         GE0/2/27.3551    XLOfficeMPLS
10.171.196.50   Incomplete      1         D-0         GE0/2/27.3551    XLOfficeMPLS
10.171.196.51   60b9-c014-2500  20        D-0         GE0/2/27.3551    XLOfficeMPLS",Shift p3,MA-SM3535649G-01H G0/2/27 <> JAW-JT-TGL-3178_MINTARAGEN TEGAL TIMUR_2535649_0 <> JAW-JT-TGL-0150_XL Center Tegal_253A300_0 <> 17 EG6-1 XLC
37,DENPSR02-RC01,10.38.0.6,XL Center Sunset Road Kuta,XLC Sunset Road (RSO),DENPSR02-RC01,IT Link,East,Bali,Kuta,"Jl. Sunset Road No. 818, Kuta, Denpasar",XLC,RO,1,Ready,Ready,Eaton Powerware ,Continue,Battery backup OK,XLC Sunset Road (RSO) <pulling cable> MSC Denpasar --- PE-DPRGO-01 ge-1/0/2 (VLAN 500),XLC Sunset Road (RSO) <pulling cable> MSC Denpasar --- PE-DPRGO-01 ge-1/0/2 (VLAN 500),XLC Sunset Road (RSO) <pulling cable> MSC Denpasar --- PE-DPRGO-01 ge-1/0/2 (VLAN 500),2614733,2614733_BSC_Denpasar_Office,2614733_BSC_Denpasar_Office,,,XLC Sunset Road (RSO) - Bali Is Offline,XLC Sunset Road (RSO) - Bali Is Offline,BALIO,DENPSR02-RC01,,"PE-DPRGO-01 <> interfaces ge-1/0/2.740 
Description: XLOfficetoDPSRC01_DENPASAR-REGIONALOFFICE_PRIMARY (AC_Trunk_1x_GE_to_SWDPRO01)","ca_usr@PE-DPRGO-01> show arp vpn XLOfficeMPLS 
MAC Address       Address         Name                      Interface               Flags
2c:d0:2d:68:be:82 10.172.234.106  10.172.234.106            ge-1/0/2.740            none",Shift p3,"PE-DPRGO-01 <> interfaces ge-1/0/2.740 
Description: XLOfficetoDPSRC01_DENPASAR-REGIONALOFFICE_PRIMARY (AC_Trunk_1x_GE_to_SWDPRO01)"
38,DENPSR02-RD01,10.38.0.1,XL Center Sunset Road Kuta,XLC Sunset Road (RSO),DENPSR02-RD01,IT Link,East,Bali,Kuta,"Jl. Sunset Road No. 818, Kuta, Denpasar",XLC,RO,1,Ready,Ready,Eaton Powerware ,Continue,Battery backup OK,XLC Sunset Road (RSO) <pulling cable> MSC Denpasar --- PE-DPRGO-01 ge-1/0/2 (VLAN 500),XLC Sunset Road (RSO) <pulling cable> MSC Denpasar --- PE-DPRGO-01 ge-1/0/2 (VLAN 500),XLC Sunset Road (RSO) <pulling cable> MSC Denpasar --- PE-DPRGO-01 ge-1/0/2 (VLAN 500),2614733,2614733_BSC_Denpasar_Office,2614733_BSC_Denpasar_Office,,,XLC Sunset Road (RSO) - Bali Is Offline,XLC Sunset Road (RSO) - Bali Is Offline,BALIO,DENPSR02-RD01,,"PE-DPRGO-01 <> interfaces ge-1/0/2.740 
Description: XLOfficetoDPSRC01_DENPASAR-REGIONALOFFICE_PRIMARY (AC_Trunk_1x_GE_to_SWDPRO01)","ca_usr@PE-DPRGO-01> show arp vpn XLOfficeMPLS 
MAC Address       Address         Name                      Interface               Flags
2c:d0:2d:68:be:82 10.172.234.106  10.172.234.106            ge-1/0/2.740            none",Shift p3,"PE-DPRGO-01 <> interfaces ge-1/0/2.740 
Description: XLOfficetoDPSRC01_DENPASAR-REGIONALOFFICE_PRIMARY (AC_Trunk_1x_GE_to_SWDPRO01)"
39,DENPSR02-SW-VG01,10.30.0.40,XL Center Sunset Road Kuta,XLC Sunset Road (RSO),DENPSR02-SW-VG01,IT Link,East,Bali,Kuta,"Jl. Sunset Road No. 818, Kuta, Denpasar",XLC,RO,1,Ready,Ready,Eaton Powerware ,Continue,Battery backup OK,XLC Sunset Road (RSO) <pulling cable> MSC Denpasar --- PE-DPRGO-01 ge-1/0/2 (VLAN 500),XLC Sunset Road (RSO) <pulling cable> MSC Denpasar --- PE-DPRGO-01 ge-1/0/2 (VLAN 500),XLC Sunset Road (RSO) <pulling cable> MSC Denpasar --- PE-DPRGO-01 ge-1/0/2 (VLAN 500),2614733,2614733_BSC_Denpasar_Office,2614733_BSC_Denpasar_Office,,,XLC Sunset Road (RSO) - Bali Is Offline,XLC Sunset Road (RSO) - Bali Is Offline,BALIO,DENPSR02-SW-VG01,,"PE-DPRGO-01 <> interfaces ge-1/0/2.740 
Description: XLOfficetoDPSRC01_DENPASAR-REGIONALOFFICE_PRIMARY (AC_Trunk_1x_GE_to_SWDPRO01)","ca_usr@PE-DPRGO-01> show arp vpn XLOfficeMPLS 
MAC Address       Address         Name                      Interface               Flags
2c:d0:2d:68:be:82 10.172.234.106  10.172.234.106            ge-1/0/2.740            none",Shift p3,"PE-DPRGO-01 <> interfaces ge-1/0/2.740 
Description: XLOfficetoDPSRC01_DENPASAR-REGIONALOFFICE_PRIMARY (AC_Trunk_1x_GE_to_SWDPRO01)"
40,DENPSR02-RC02,10.38.0.9,XL Center Sunset Road Kuta,XLC Sunset Road (RSO),DENPSR02-RC02,IT Link,East,Bali,Kuta,"Jl. Sunset Road No. 818, Kuta, Denpasar",XLC,RO,1,Ready,Ready,Eaton Powerware ,Continue,Battery backup OK,XLC Sunset Road (RSO) <pulling cable> MSC Denpasar --- PE-DPRGO-01 ge-1/0/2 (VLAN 500),XLC Sunset Road (RSO) <pulling cable> MSC Denpasar --- PE-DPRGO-01 ge-1/0/2 (VLAN 500),XLC Sunset Road (RSO) <pulling cable> MSC Denpasar --- PE-DPRGO-01 ge-1/0/2 (VLAN 500),2614733,2614733_BSC_Denpasar_Office,2614733_BSC_Denpasar_Office,,,XLC Sunset Road (RSO) - Bali Is Offline,XLC Sunset Road (RSO) - Bali Is Offline,BALIO,DENPSR02-RC02,,"PE-DPRGO-01 <> interfaces ge-1/0/2.740 
Description: XLOfficetoDPSRC01_DENPASAR-REGIONALOFFICE_PRIMARY (AC_Trunk_1x_GE_to_SWDPRO01)","ca_usr@PE-DPRGO-01> show arp vpn XLOfficeMPLS 
MAC Address       Address         Name                      Interface               Flags
2c:d0:2d:68:be:82 10.172.234.106  10.172.234.106            ge-1/0/2.740            none",Shift p3,"PE-DPRGO-01 <> interfaces ge-1/0/2.740 
Description: XLOfficetoDPSRC01_DENPASAR-REGIONALOFFICE_PRIMARY (AC_Trunk_1x_GE_to_SWDPRO01)"
41,DENPSR02-RD02,10.38.0.3,XL Center Sunset Road Kuta,XLC Sunset Road (RSO),DENPSR02-RD02,IT Link,East,Bali,Kuta,"Jl. Sunset Road No. 818, Kuta, Denpasar",XLC,RO,1,Ready,Ready,Eaton Powerware ,Continue,Battery backup OK,XLC Sunset Road (RSO) <pulling cable> MSC Denpasar --- PE-DPRGO-01 ge-1/0/2 (VLAN 500),XLC Sunset Road (RSO) <pulling cable> MSC Denpasar --- PE-DPRGO-01 ge-1/0/2 (VLAN 500),XLC Sunset Road (RSO) <pulling cable> MSC Denpasar --- PE-DPRGO-01 ge-1/0/2 (VLAN 500),2614733,2614733_BSC_Denpasar_Office,2614733_BSC_Denpasar_Office,,,XLC Sunset Road (RSO) - Bali Is Offline,XLC Sunset Road (RSO) - Bali Is Offline,BALIO,DENPSR02-RD02,,"PE-DPRGO-01 <> interfaces ge-1/0/2.740 
Description: XLOfficetoDPSRC01_DENPASAR-REGIONALOFFICE_PRIMARY (AC_Trunk_1x_GE_to_SWDPRO01)","ca_usr@PE-DPRGO-01> show arp vpn XLOfficeMPLS 
MAC Address       Address         Name                      Interface               Flags
2c:d0:2d:68:be:82 10.172.234.106  10.172.234.106            ge-1/0/2.740            none",Shift p3,"PE-DPRGO-01 <> interfaces ge-1/0/2.740 
Description: XLOfficetoDPSRC01_DENPASAR-REGIONALOFFICE_PRIMARY (AC_Trunk_1x_GE_to_SWDPRO01)"
42,DENPSR02-SW-RD04,10.38.0.11,XL Center Sunset Road Kuta,XLC Sunset Road (RSO),DENPSR02-SW-RD04,IT Link,East,Bali,Kuta,"Jl. Sunset Road No. 818, Kuta, Denpasar",XLC,RO,1,Ready,Ready,Eaton Powerware ,Continue,Battery backup OK,XLC Sunset Road (RSO) <pulling cable> MSC Denpasar --- PE-DPRGO-01 ge-1/0/2 (VLAN 500),XLC Sunset Road (RSO) <pulling cable> MSC Denpasar --- PE-DPRGO-01 ge-1/0/2 (VLAN 500),XLC Sunset Road (RSO) <pulling cable> MSC Denpasar --- PE-DPRGO-01 ge-1/0/2 (VLAN 500),2614733,2614733_BSC_Denpasar_Office,2614733_BSC_Denpasar_Office,,,XLC Sunset Road (RSO) - Bali Is Offline,XLC Sunset Road (RSO) - Bali Is Offline,BALIO,DENPSR02-SW-RD04,,"PE-DPRGO-01 <> interfaces ge-1/0/2.740 
Description: XLOfficetoDPSRC01_DENPASAR-REGIONALOFFICE_PRIMARY (AC_Trunk_1x_GE_to_SWDPRO01)","ca_usr@PE-DPRGO-01> show arp vpn XLOfficeMPLS 
MAC Address       Address         Name                      Interface               Flags
2c:d0:2d:68:be:82 10.172.234.106  10.172.234.106            ge-1/0/2.740            none",Shift p3,"PE-DPRGO-01 <> interfaces ge-1/0/2.740 
Description: XLOfficetoDPSRC01_DENPASAR-REGIONALOFFICE_PRIMARY (AC_Trunk_1x_GE_to_SWDPRO01)"
